{
  "type": "FeatureCollection",
  "features": [
    {
      "type": "Feature",
      "properties": {
        "norad_id": 30848,
        "name": "FENGYUN 1C DEB",
        "group": "fengyun-1c-debris",
        "lat": 21.444756438527772,
        "lon": 6.343924507524282,
        "alt_km": 807.7349757484426,
        "timestamp": "2025-12-13T20:38:51.284289+00:00",
        "meta_object_name": "FENGYUN 1C DEB",
        "meta_object_id": "1999-025AWJ",
        "meta_epoch": "2025-12-12T12:06:18.747360",
        "meta_mean_motion": 14.34482852,
        "meta_eccentricity": 0.00438482,
        "meta_inclination": 99.0599,
        "meta_ra_of_asc_node": 181.3298,
        "meta_arg_of_pericenter": 336.4122,
        "meta_mean_anomaly": 23.505,
        "meta_ephemeris_type": 0,
        "meta_classification_type": "U",
        "meta_norad_cat_id": 30848,
        "meta_element_set_no": 999,
        "meta_rev_at_epoch": 97303,
        "meta_bstar": 0.0018094633,
        "meta_mean_motion_dot": 5.111e-05,
        "meta_mean_motion_ddot": 0,
        "tle_line1": "1 30848U 99025AWJ 25346.50438365  .00005111  00000+0  18095-2 0  9994",
        "tle_line2": "2 30848  99.0599 181.3298 0043848 336.4122  23.5050 14.34482852973034"
      },
      "geometry": {
        "type": "Point",
        "coordinates": [
          6.343924507524282,
          21.444756438527772
        ]
      }
    },
    {
      "type": "Feature",
      "properties": {
        "norad_id": 30849,
        "name": "FENGYUN 1C DEB",
        "group": "fengyun-1c-debris",
        "lat": 31.68897555112847,
        "lon": -126.47262091641953,
        "alt_km": 855.5250838059446,
        "timestamp": "2025-12-13T20:38:51.284299+00:00",
        "meta_object_name": "FENGYUN 1C DEB",
        "meta_object_id": "1999-025AWK",
        "meta_epoch": "2025-12-13T03:17:18.695616",
        "meta_mean_motion": 14.18860569,
        "meta_eccentricity": 0.00480134,
        "meta_inclination": 99.0477,
        "meta_ra_of_asc_node": 47.1444,
        "meta_arg_of_pericenter": 5.0872,
        "meta_mean_anomaly": 49.9039,
        "meta_ephemeris_type": 0,
        "meta_classification_type": "U",
        "meta_norad_cat_id": 30849,
        "meta_element_set_no": 999,
        "meta_rev_at_epoch": 96378,
        "meta_bstar": 0.0019031307,
        "meta_mean_motion_dot": 3.962e-05,
        "meta_mean_motion_ddot": 0,
        "tle_line1": "1 30849U 99025AWK 25347.13702194  .00003962  00000+0  19031-2 0  9992",
        "tle_line2": "2 30849  99.0477  47.1444 0048013   5.0872  49.9039 14.18860569963789"
      },
      "geometry": {
        "type": "Point",
        "coordinates": [
          -126.47262091641953,
          31.68897555112847
        ]
      }
    },
    {
      "type": "Feature",
      "properties": {
        "norad_id": 30850,
        "name": "FENGYUN 1C DEB",
        "group": "fengyun-1c-debris",
        "lat": 65.22038406424184,
        "lon": -165.35691889023062,
        "alt_km": 879.4449267745367,
        "timestamp": "2025-12-13T20:38:51.284310+00:00",
        "meta_object_name": "FENGYUN 1C DEB",
        "meta_object_id": "1999-025AWL",
        "meta_epoch": "2025-12-13T02:24:17.701632",
        "meta_mean_motion": 14.16290776,
        "meta_eccentricity": 0.01092018,
        "meta_inclination": 98.3946,
        "meta_ra_of_asc_node": 212.5815,
        "meta_arg_of_pericenter": 196.7975,
        "meta_mean_anomaly": 317.4858,
        "meta_ephemeris_type": 0,
        "meta_classification_type": "U",
        "meta_norad_cat_id": 30850,
        "meta_element_set_no": 999,
        "meta_rev_at_epoch": 95803,
        "meta_bstar": 0.0027985011,
        "meta_mean_motion_dot": 5.844e-05,
        "meta_mean_motion_ddot": 0,
        "tle_line1": "1 30850U 99025AWL 25347.10020488  .00005844  00000+0  27985-2 0  9998",
        "tle_line2": "2 30850  98.3946 212.5815 0109201 196.7975 317.4858 14.16290776958032"
      },
      "geometry": {
        "type": "Point",
        "coordinates": [
          -165.35691889023062,
          65.22038406424184
        ]
      }
    },
    {
      "type": "Feature",
      "properties": {
        "norad_id": 30852,
        "name": "FENGYUN 1C DEB",
        "group": "fengyun-1c-debris",
        "lat": 27.991542238477347,
        "lon": 0.8923493859547471,
        "alt_km": 894.310709501492,
        "timestamp": "2025-12-13T20:38:51.284320+00:00",
        "meta_object_name": "FENGYUN 1C DEB",
        "meta_object_id": "1999-025AWN",
        "meta_epoch": "2025-12-13T06:53:25.769184",
        "meta_mean_motion": 14.10286147,
        "meta_eccentricity": 0.00558603,
        "meta_inclination": 98.7335,
        "meta_ra_of_asc_node": 5.0222,
        "meta_arg_of_pericenter": 232.9958,
        "meta_mean_anomaly": 126.6094,
        "meta_ephemeris_type": 0,
        "meta_classification_type": "U",
        "meta_norad_cat_id": 30852,
        "meta_element_set_no": 999,
        "meta_rev_at_epoch": 96390,
        "meta_bstar": 0.00069161112,
        "meta_mean_motion_dot": 1.201e-05,
        "meta_mean_motion_ddot": 0,
        "tle_line1": "1 30852U 99025AWN 25347.28710381  .00001201  00000+0  69161-3 0  9993",
        "tle_line2": "2 30852  98.7335   5.0222 0055860 232.9958 126.6094 14.10286147963907"
      },
      "geometry": {
        "type": "Point",
        "coordinates": [
          0.8923493859547471,
          27.991542238477347
        ]
      }
    },
    {
      "type": "Feature",
      "properties": {
        "norad_id": 30856,
        "name": "FENGYUN 1C DEB",
        "group": "fengyun-1c-debris",
        "lat": -34.08401868944479,
        "lon": 178.2122186842106,
        "alt_km": 743.6350656693412,
        "timestamp": "2025-12-13T20:38:51.284330+00:00",
        "meta_object_name": "FENGYUN 1C DEB",
        "meta_object_id": "1999-025AWS",
        "meta_epoch": "2025-12-13T01:29:03.445152",
        "meta_mean_motion": 14.46190819,
        "meta_eccentricity": 0.00880801,
        "meta_inclination": 98.2006,
        "meta_ra_of_asc_node": 171.8401,
        "meta_arg_of_pericenter": 238.0329,
        "meta_mean_anomaly": 251.8848,
        "meta_ephemeris_type": 0,
        "meta_classification_type": "U",
        "meta_norad_cat_id": 30856,
        "meta_element_set_no": 999,
        "meta_rev_at_epoch": 96530,
        "meta_bstar": 0.0070896281,
        "meta_mean_motion_dot": 0.00026656,
        "meta_mean_motion_ddot": 0,
        "tle_line1": "1 30856U 99025AWS 25347.06184543  .00026656  00000+0  70896-2 0  9995",
        "tle_line2": "2 30856  98.2006 171.8401 0088080 238.0329 251.8848 14.46190819965304"
      },
      "geometry": {
        "type": "Point",
        "coordinates": [
          178.2122186842106,
          -34.08401868944479
        ]
      }
    },
    {
      "type": "Feature",
      "properties": {
        "norad_id": 30857,
        "name": "FENGYUN 1C DEB",
        "group": "fengyun-1c-debris",
        "lat": 2.0198433330588137,
        "lon": 158.0175713307402,
        "alt_km": 735.0926742894599,
        "timestamp": "2025-12-13T20:38:51.284341+00:00",
        "meta_object_name": "FENGYUN 1C DEB",
        "meta_object_id": "1999-025AWT",
        "meta_epoch": "2025-12-10T22:20:28.597056",
        "meta_mean_motion": 14.51403304,
        "meta_eccentricity": 0.0041899,
        "meta_inclination": 98.9745,
        "meta_ra_of_asc_node": 334.5727,
        "meta_arg_of_pericenter": 300.5616,
        "meta_mean_anomaly": 59.1445,
        "meta_ephemeris_type": 0,
        "meta_classification_type": "U",
        "meta_norad_cat_id": 30857,
        "meta_element_set_no": 999,
        "meta_rev_at_epoch": 96697,
        "meta_bstar": 0.0076916,
        "meta_mean_motion_dot": 0.0003112,
        "meta_mean_motion_ddot": 0,
        "tle_line1": "1 30857U 99025AWT 25344.93088654  .00031120  00000+0  76916-2 0  9996",
        "tle_line2": "2 30857  98.9745 334.5727 0041899 300.5616  59.1445 14.51403304966970"
      },
      "geometry": {
        "type": "Point",
        "coordinates": [
          158.0175713307402,
          2.0198433330588137
        ]
      }
    },
    {
      "type": "Feature",
      "properties": {
        "norad_id": 30858,
        "name": "FENGYUN 1C DEB",
        "group": "fengyun-1c-debris",
        "lat": 42.01761421490048,
        "lon": 37.45989297113208,
        "alt_km": 819.5961865488198,
        "timestamp": "2025-12-13T20:38:51.284351+00:00",
        "meta_object_name": "FENGYUN 1C DEB",
        "meta_object_id": "1999-025AWU",
        "meta_epoch": "2025-12-13T03:37:48.004320",
        "meta_mean_motion": 14.17781578,
        "meta_eccentricity": 0.0030778,
        "meta_inclination": 98.7992,
        "meta_ra_of_asc_node": 44.7795,
        "meta_arg_of_pericenter": 108.7087,
        "meta_mean_anomaly": 277.271,
        "meta_ephemeris_type": 0,
        "meta_classification_type": "U",
        "meta_norad_cat_id": 30858,
        "meta_element_set_no": 999,
        "meta_rev_at_epoch": 96986,
        "meta_bstar": 0.0005436291,
        "meta_mean_motion_dot": 1.07e-05,
        "meta_mean_motion_ddot": 0,
        "tle_line1": "1 30858U 99025AWU 25347.15125005  .00001070  00000+0  54363-3 0  9990",
        "tle_line2": "2 30858  98.7992  44.7795 0030778 108.7087 277.2710 14.17781578969865"
      },
      "geometry": {
        "type": "Point",
        "coordinates": [
          37.45989297113208,
          42.01761421490048
        ]
      }
    }
  ]
}